COMMENT,ORIGINATOR,NORAD_CAT_ID,OBJECT_NAME,OBJECT_TYPE,CLASSIFICATION_TYPE,INTLDES,EPOCH,EPOCH_MICROSECONDS,MEAN_MOTION,ECCENTRICITY,INCLINATION,RA_OF_ASC_NODE,ARG_OF_PERICENTER,MEAN_ANOMALY,EPHEMERIS_TYPE,ELEMENT_SET_NO,REV_AT_EPOCH,BSTAR,MEAN_MOTION_DOT,MEAN_MOTION_DDOT,FILE,TLE_LINE0,TLE_LINE1,TLE_LINE2,OBJECT_ID,OBJECT_NUMBER,SEMIMAJOR_AXIS,PERIOD,APOGEE,PERIGEE,DECAYED
"GENERATED VIA SPACETRACK.ORG API","18 SPCS","53903","STARLINK-5022","PAYLOAD","U","22119T","2024-01-08 18:13:00","268032","15.08831585","0.0001548","53.2163","274.548","82.754","277.3628","0","999","7186","0.00003256","0.0000023","0","4156727","0 STARLINK-5022","1 53903U 22119T   24008.75903088  .00000230  00000-0  32560-4 0  9994","2 53903  53.2163 274.5480 0001548  82.7540 277.3628 15.08831585 71867","2022-119T","53903","6917.906","95.438","540.842","538.700","0"
"GENERATED VIA SPACETRACK.ORG API","18 SPCS","53903","STARLINK-5022","PAYLOAD","U","22119T","2024-01-08 22:59:09","314016","15.0883613","0.0001455","53.2158","273.6538","102.7277","257.3878","0","999","7231","0.000056283","0.00000608","0","4156930","0 STARLINK-5022","1 53903U 22119T   24008.95774669  .00000608  00000-0  56283-4 0  9994","2 53903  53.2158 273.6538 0001455 102.7277 257.3878 15.08836130 72319","2022-119T","53903","6917.892","95.438","540.764","538.751","0"
"GENERATED VIA SPACETRACK.ORG API","18 SPCS","53903","STARLINK-5022","PAYLOAD","U","22119T","2024-01-09 00:34:32","401632","15.08838015","0.000139","53.216","273.356","93.0877","267.0274","0","999","7190","0.000046482","0.00000452","0","4157330","0 STARLINK-5022","1 53903U 22119T   24009.02398613  .00000452  00000-0  46482-4 0  9991","2 53903  53.2160 273.3560 0001390  93.0877 267.0274 15.08838015 71906","2022-119T","53903","6917.886","95.438","540.713","538.790","0"
"GENERATED VIA SPACETRACK.ORG API","18 SPCS","53903","STARLINK-5022","PAYLOAD","U","22119T","2024-01-09 00:34:32","401632","15.08838015","0.000139","53.216","273.356","93.0877","267.0274","0","999","7232","0.000046482","0.00000452","0","4157515","0 STARLINK-5022","1 53903U 22119T   24009.02398613  .00000452  00000-0  46482-4 0  9991","2 53903  53.2160 273.3560 0001390  93.0877 267.0274 15.08838015 72323","2022-119T","53903","6917.886","95.438","540.713","538.790","0"
"GENERATED VIA SPACETRACK.ORG API","18 SPCS","53903","STARLINK-5022","PAYLOAD","U","22119T","2024-01-09 16:28:24","129696","15.08838199","0.0001424","53.2163","270.3825","102.0263","258.0889","0","999","7242","-0.000013071","-0.00000496","0","4157773","0 STARLINK-5022","1 53903U 22119T   24009.68639039 -.00000496  00000-0 -13071-4 0  9991","2 53903  53.2163 270.3825 0001424 102.0263 258.0889 15.08838199 72421","2022-119T","53903","6917.886","95.438","540.736","538.766","0"
"GENERATED VIA SPACETRACK.ORG API","18 SPCS","53903","STARLINK-5022","PAYLOAD","U","22119T","2024-01-09 22:49:56","274528","15.08842733","0.0001406","53.2159","269.195","97.1599","262.9553","0","999","7246","0.000039263","0.00000337","0","4158336","0 STARLINK-5022","1 53903U 22119T   24009.95134577  .00000337  00000-0  39263-4 0  9991","2 53903  53.2159 269.1950 0001406  97.1599 262.9553 15.08842733 72462","2022-119T","53903","6917.872","95.437","540.710","538.764","0"
"GENERATED VIA SPACETRACK.ORG API","18 SPCS","53903","STARLINK-5022","PAYLOAD","U","22119T","2024-01-11 00:16:06","530016","15.08843202","0.0001338","53.2165","264.4408","87.3634","272.7511","0","999","7220","0.000090565","0.00001154","0","4158692","0 STARLINK-5022","1 53903U 22119T   24011.01118669  .00001154  00000-0  90565-4 0  9995","2 53903  53.2165 264.4408 0001338  87.3634 272.7511 15.08843202 72207","2022-119T","53903","6917.871","95.437","540.661","538.810","0"
"GENERATED VIA SPACETRACK.ORG API","18 SPCS","53903","STARLINK-5022","PAYLOAD","U","22119T","2024-01-11 00:16:06","530016","15.08843202","0.0001338","53.2165","264.4408","87.3634","272.7511","0","999","7262","0.000090565","0.00001154","0","4159265","0 STARLINK-5022","1 53903U 22119T   24011.01118669  .00001154  00000-0  90565-4 0  9995","2 53903  53.2165 264.4408 0001338  87.3634 272.7511 15.08843202 72623","2022-119T","53903","6917.871","95.437","540.661","538.810","0"
"GENERATED VIA SPACETRACK.ORG API","18 SPCS","53903","STARLINK-5022","PAYLOAD","U","22119T","2024-01-11 16:09:58","201056","15.08839042","0.0001404","53.2165","261.4678","78.8871","281.2279","0","999","7230","0.000081432","0.00001008","0","4159330","0 STARLINK-5022","1 53903U 22119T   24011.67359029  .00001008  00000-0  81432-4 0  9995","2 53903  53.2165 261.4678 0001404  78.8871 281.2279 15.08839042 72309","2022-119T","53903","6917.883","95.438","540.720","538.777","0"
"GENERATED VIA SPACETRACK.ORG API","18 SPCS","53903","STARLINK-5022","PAYLOAD","U","22119T","2024-01-11 20:56:07","607328","15.08839527","0.0001408","53.2165","260.5757","78.9658","281.1493","0","999","7275","0.000079563","0.00000979","0","4159545","0 STARLINK-5022","1 53903U 22119T   24011.87231027  .00000979  00000-0  79563-4 0  9992","2 53903  53.2165 260.5757 0001408  78.9658 281.1493 15.08839527 72759","2022-119T","53903","6917.882","95.438","540.721","538.773","0"
"GENERATED VIA SPACETRACK.ORG API","18 SPCS","53903","STARLINK-5022","PAYLOAD","U","22119T","2024-01-12 01:42:16","521120","15.08846963","0.0001648","53.2174","259.6831","80.8543","279.2635","0","999","7236","0.00013785","0.00001907","0","4159627","0 STARLINK-5022","1 53903U 22119T   24012.07102455  .00001907  00000-0  13785-3 0  9992","2 53903  53.2174 259.6831 0001648  80.8543 279.2635 15.08846963 72367","2022-119T","53903","6917.859","95.437","540.864","538.584","0"
"GENERATED VIA SPACETRACK.ORG API","18 SPCS","53903","STARLINK-5022","PAYLOAD","U","22119T","2024-01-12 01:42:16","521120","15.08846963","0.0001648","53.2174","259.6831","80.8543","279.2635","0","999","7278","0.00013785","0.00001907","0","4160109","0 STARLINK-5022","1 53903U 22119T   24012.07102455  .00001907  00000-0  13785-3 0  9992","2 53903  53.2174 259.6831 0001648  80.8543 279.2635 15.08846963 72783","2022-119T","53903","6917.859","95.437","540.864","538.584","0"
"GENERATED VIA SPACETRACK.ORG API","18 SPCS","53903","STARLINK-5022","PAYLOAD","U","22119T","2024-01-12 16:00:45","883008","15.08836042","0.00019","53.2171","257.0085","69.0974","291.0222","0","999","7245","0.000018305","0.00000003","0","4160184","0 STARLINK-5022","1 53903U 22119T   24012.66719772  .00000003  00000-0  18305-4 0  9993","2 53903  53.2171 257.0085 0001900  69.0974 291.0222 15.08836042 72456","2022-119T","53903","6917.892","95.438","541.072","538.443","0"
"GENERATED VIA SPACETRACK.ORG API","18 SPCS","53903","STARLINK-5022","PAYLOAD","U","22119T","2024-01-12 22:22:18","117696","15.08838437","0.0001608","53.2172","255.8147","112.1972","247.919","0","999","7291","-0.000017666","-0.00000569","0","4160399","0 STARLINK-5022","1 53903U 22119T   24012.93215414 -.00000569  00000-0 -17666-4 0  9995","2 53903  53.2172 255.8147 0001608 112.1972 247.9190 15.08838437 72910","2022-119T","53903","6917.885","95.438","540.863","538.638","0"
"GENERATED VIA SPACETRACK.ORG API","18 SPCS","53903","STARLINK-5022","PAYLOAD","U","22119T","2024-01-13 19:02:18","589344","15.08845017","0.0001438","53.2164","251.9508","91.3665","268.7492","0","999","7262","0.000084553","0.00001058","0","4161051","0 STARLINK-5022","1 53903U 22119T   24013.79327071  .00001058  00000-0  84553-4 0  9994","2 53903  53.2164 251.9508 0001438  91.3665 268.7492 15.08845017 72623","2022-119T","53903","6917.865","95.437","540.725","538.735","0"
"GENERATED VIA SPACETRACK.ORG API","18 SPCS","53903","STARLINK-5022","PAYLOAD","U","22119T","2024-01-13 22:13:04","650528","15.08849343","0.0001447","53.2162","251.3559","82.6289","277.4868","0","999","7306","0.00011414","0.00001529","0","4161833","0 STARLINK-5022","1 53903U 22119T   24013.92574827  .00001529  00000-0  11414-3 0  9990","2 53903  53.2162 251.3559 0001447  82.6289 277.4868 15.08849343 73065","2022-119T","53903","6917.852","95.437","540.718","538.716","0"
"GENERATED VIA SPACETRACK.ORG API","18 SPCS","53903","STARLINK-5022","PAYLOAD","U","22119T","2024-01-14 22:03:51","979968","15.08847278","0.0001511","53.2148","246.8962","74.6271","285.4887","0","999","7321","0.00022045","0.00003223","0","4162100","0 STARLINK-5022","1 53903U 22119T   24014.91935162  .00003223  00000-0  22045-3 0  9998","2 53903  53.2148 246.8962 0001511  74.6271 285.4887 15.08847278 73212","2022-119T","53903","6917.858","95.437","540.768","538.678","0"
"GENERATED VIA SPACETRACK.ORG API","18 SPCS","53903","STARLINK-5022","PAYLOAD","U","22119T","2024-01-14 22:03:51","979968","15.08847278","0.0001511","53.2148","246.8962","74.6271","285.4887","0","999","7279","0.00022045","0.00003223","0","4162166","0 STARLINK-5022","1 53903U 22119T   24014.91935162  .00003223  00000-0  22045-3 0  9998","2 53903  53.2148 246.8962 0001511  74.6271 285.4887 15.08847278 72794","2022-119T","53903","6917.858","95.437","540.768","538.678","0"
"GENERATED VIA SPACETRACK.ORG API","18 SPCS","53903","STARLINK-5022","PAYLOAD","U","22119T","2024-01-15 18:43:52","689216","15.08841902","0.0001462","53.2151","243.0274","96.2776","263.8383","0","999","7292","-0.000044402","-0.00000995","0","4162782","0 STARLINK-5022","1 53903U 22119T   24015.78047094 -.00000995  00000-0 -44402-4 0  9999","2 53903  53.2151 243.0274 0001462  96.2776 263.8383 15.08841902 72922","2022-119T","53903","6917.875","95.437","540.751","538.728","0"
"GENERATED VIA SPACETRACK.ORG API","18 SPCS","53903","STARLINK-5022","PAYLOAD","U","22119T","2024-01-15 20:19:15","983328","15.08842724","0.0001425","53.2161","242.7301","95.164","264.9514","0","999","7335","-0.00001191","-0.00000478","0","4162957","0 STARLINK-5022","1 53903U 22119T   24015.84671277 -.00000478  00000-0 -11910-4 0  9996","2 53903  53.2161 242.7301 0001425  95.1640 264.9514 15.08842724 73356","2022-119T","53903","6917.872","95.437","540.723","538.751","0"
